NOAA 1                  
1 04793U 70106A   25315.09919240 -.00000043  00000+0 -44433-5 0  9998
2 04793 101.3714 354.0540 0031746  54.9439   1.1139 12.54046553513355
NOAA 2 (ITOS-D)         
1 06235U 72082A   25315.25949326 -.00000020  00000+0  16620-3 0  9991
2 06235 102.0212 326.3512 0003940 224.6119 147.6731 12.53207107427650
NOAA 3                  
1 06920U 73086A   25315.26166457 -.00000040  00000+0  46586-4 0  9991
2 06920 102.2926 322.1040 0006472 164.6847 206.2517 12.40387716354888
NOAA 4                  
1 07529U 74089A   25315.31777978 -.00000031  00000+0  96944-4 0  9996
2 07529 102.0079 320.8023 0008797 252.3258 118.7765 12.53198293332231
NOAA 5                  
1 09057U 76077A   25314.94349457 -.00000024  00000+0  17098-3 0  9992
2 09057 102.2795 294.9300 0010109  19.4648 354.1757 12.37823903227471
TIROS N                 
1 11060U 78096A   25315.30629040  .00000341  00000+0  18248-3 0  9991
2 11060  98.4745 341.0343 0011036 148.9744 211.2086 14.19269593647841
NOAA 6                  
1 11416U 79057A   25315.04797269  .00000532  00000+0  20095-3 0  9999
2 11416  98.5875 340.8643 0009866 178.6921 181.4292 14.35314963419660
NOAA 7                  
1 12553U 81059A   25315.16844576  .00000105  00000+0  73233-4 0  9993
2 12553  98.8266  19.0905 0011689 167.1161 193.0315 14.17742008293852
NOAA 8                  
1 13923U 83022A   25315.28365852  .00000313  00000+0  13925-3 0  9997
2 13923  98.7385 322.7130 0014916 171.8671 188.2755 14.29704364219930
NOAA 9                  
1 15427U 84123A   25315.29342292  .00000258  00000+0  15141-3 0  9995
2 15427  99.1179 331.6887 0013763 245.5137 124.9573 14.16986178112567
NOAA 10                 
1 16969U 86073A   25315.21153641  .00000341  00000+0  15200-3 0  9992
2 16969  98.6894 303.9469 0010985 274.6869  96.0092 14.29079927 38283
NOAA 11                 
1 19531U 88089A   25315.27126317  .00000171  00000+0  10826-3 0  9995
2 19531  98.5921 263.4201 0010584 198.1936 161.8862 14.15785911916648
NOAA 12                 
1 21263U 91032A   25315.23035533  .00000259  00000+0  12490-3 0  9993
2 21263  98.6029 302.1921 0012769 308.4125  51.5908 14.26666933793885
NOAA 13                 
1 22739U 93050A   25315.30488281  .00000281  00000+0  17178-3 0  9997
2 22739  98.6765 261.4660 0010147  36.3146 323.8714 14.13585261662599
NOAA 14                 
1 23455U 94089A   25315.21048700  .00000166  00000+0  10752-3 0  9997
2 23455  98.4847 290.1916 0009406 357.1043   3.0075 14.14621791592389
NOAA 15                 
1 25338U 98030A   25315.20781439  .00000317  00000+0  14756-3 0  9997
2 25338  98.5252 336.5527 0009115 265.8957  94.1182 14.27051233430205
NOAA 16                 
1 26536U 00055A   25315.27502051  .00000185  00000+0  11907-3 0  9994
2 26536  98.4778 335.9300 0009960 201.3677 158.7082 14.13854903592937
NOAA 17                 
1 27453U 02032A   25315.31844620  .00000499  00000+0  22766-3 0  9999
2 27453  98.8349 273.8437 0010564 263.1412  96.8565 14.26103987215933
NOAA 18                 
1 28654U 05018A   25315.27464890  .00000223  00000+0  14120-3 0  9992
2 28654  98.8321  32.9315 0014962  53.2364 307.0179 14.13664430 55522
NOAA 19                 
1 33591U 09005A   25315.23525935  .00000130  00000+0  93162-4 0  9993
2 33591  98.9806  20.6793 0012797 287.9197  72.0579 14.13425829863690
SUOMI NPP               
1 37849U 11061A   25315.32735180  .00000221  00000+0  12571-3 0  9998
2 37849  98.7722 252.9592 0000608 186.2501 173.8667 14.19541548727533
NOAA 20 (JPSS-1)        
1 43013U 17073A   25315.27169214  .00000211  00000+0  12100-3 0  9997
2 43013  98.7548 251.9205 0001449 132.7058 227.4240 14.19512800413552
NOAA 21 (JPSS-2)        
1 54234U 22150A   25315.30674043  .00000227  00000+0  12867-3 0  9998
2 54234  98.7412 252.0149 0002734  94.2594 265.8895 14.19510467155634
